[{"OBJECT_NAME":"OBJECT K","OBJECT_ID":"2024-205K","EPOCH":"2026-03-09T22:22:01.331040","MEAN_MOTION":15.27932792,"ECCENTRICITY":0.00106729,"INCLINATION":97.417,"RA_OF_ASC_NODE":146.2172,"ARG_OF_PERICENTER":37.4736,"MEAN_ANOMALY":322.7246,"EPHEMERIS_TYPE":0,"CLASSIFICATION_TYPE":"U","NORAD_CAT_ID":61903,"ELEMENT_SET_NO":999,"REV_AT_EPOCH":7347,"BSTAR":0.00067315144,"MEAN_MOTION_DOT":0.00018331,"MEAN_MOTION_DDOT":0},{"OBJECT_NAME":"STARLINK-34911","OBJECT_ID":"2025-189C","EPOCH":"2026-03-09T16:34:34.584384","MEAN_MOTION":15.30161615,"ECCENTRICITY":0.00011532,"INCLINATION":53.1594,"RA_OF_ASC_NODE":206.9735,"ARG_OF_PERICENTER":63.9431,"MEAN_ANOMALY":296.1688,"EPHEMERIS_TYPE":0,"CLASSIFICATION_TYPE":"U","NORAD_CAT_ID":65325,"ELEMENT_SET_NO":999,"REV_AT_EPOCH":3110,"BSTAR":0.00048632119,"MEAN_MOTION_DOT":0.00014055,"MEAN_MOTION_DDOT":0}]
